{
  "type": "FeatureCollection",
  "features": [
    {
      "type": "Feature",
      "properties": {
        "norad_id": 66538,
        "name": "STARLINK-35577",
        "group": "last-30-days",
        "lat": -42.86394210628241,
        "lon": -11.431280692379957,
        "alt_km": 410.77682369590275,
        "timestamp": "2025-12-09T09:46:46.422018+00:00",
        "meta_object_name": "STARLINK-35577",
        "meta_object_id": "2025-265Y",
        "meta_epoch": "2025-12-09T04:00:01.998720",
        "meta_mean_motion": 15.53818408,
        "meta_eccentricity": 0.0001728,
        "meta_inclination": 43.0005,
        "meta_ra_of_asc_node": 74.8222,
        "meta_arg_of_pericenter": 265.4598,
        "meta_mean_anomaly": 100.2226,
        "meta_ephemeris_type": 0,
        "meta_classification_type": "U",
        "meta_norad_cat_id": 66538,
        "meta_element_set_no": 999,
        "meta_rev_at_epoch": 442,
        "meta_bstar": -0.032911,
        "meta_mean_motion_dot": -0.01912034,
        "meta_mean_motion_ddot": 0,
        "tle_line1": "1 66538U 25265Y   25343.16668980 -.01912034  00000+0 -32911-1 0  9997",
        "tle_line2": "2 66538  43.0005  74.8222 0001728 265.4598 100.2226 15.53818408  4420"
      },
      "geometry": {
        "type": "Point",
        "coordinates": [
          -11.431280692379957,
          -42.86394210628241
        ]
      }
    },
    {
      "type": "Feature",
      "properties": {
        "norad_id": 66539,
        "name": "STARLINK-35697",
        "group": "last-30-days",
        "lat": -42.7163519582591,
        "lon": -8.835390651102419,
        "alt_km": 410.83568404005564,
        "timestamp": "2025-12-09T09:46:46.422032+00:00",
        "meta_object_name": "STARLINK-35697",
        "meta_object_id": "2025-265Z",
        "meta_epoch": "2025-12-09T04:00:01.998720",
        "meta_mean_motion": 15.53814857,
        "meta_eccentricity": 0.0001642,
        "meta_inclination": 42.9998,
        "meta_ra_of_asc_node": 74.8169,
        "meta_arg_of_pericenter": 266.5743,
        "meta_mean_anomaly": 101.0276,
        "meta_ephemeris_type": 0,
        "meta_classification_type": "U",
        "meta_norad_cat_id": 66539,
        "meta_element_set_no": 999,
        "meta_rev_at_epoch": 442,
        "meta_bstar": -0.032844,
        "meta_mean_motion_dot": -0.01908328,
        "meta_mean_motion_ddot": 0,
        "tle_line1": "1 66539U 25265Z   25343.16668980 -.01908328  00000+0 -32844-1 0  9994",
        "tle_line2": "2 66539  42.9998  74.8169 0001642 266.5743 101.0276 15.53814857  4427"
      },
      "geometry": {
        "type": "Point",
        "coordinates": [
          -8.835390651102419,
          -42.7163519582591
        ]
      }
    },
    {
      "type": "Feature",
      "properties": {
        "norad_id": 66540,
        "name": "STARLINK-35818",
        "group": "last-30-days",
        "lat": -42.511534355362144,
        "lon": -6.254085290131701,
        "alt_km": 410.8039351744228,
        "timestamp": "2025-12-09T09:46:46.422043+00:00",
        "meta_object_name": "STARLINK-35818",
        "meta_object_id": "2025-265AA",
        "meta_epoch": "2025-12-09T04:00:01.998720",
        "meta_mean_motion": 15.5381076,
        "meta_eccentricity": 0.0001677,
        "meta_inclination": 43.0003,
        "meta_ra_of_asc_node": 74.813,
        "meta_arg_of_pericenter": 266.8857,
        "meta_mean_anomaly": 102.6331,
        "meta_ephemeris_type": 0,
        "meta_classification_type": "U",
        "meta_norad_cat_id": 66540,
        "meta_element_set_no": 999,
        "meta_rev_at_epoch": 442,
        "meta_bstar": -0.032657,
        "meta_mean_motion_dot": -0.01898566,
        "meta_mean_motion_ddot": 0,
        "tle_line1": "1 66540U 25265AA  25343.16668980 -.01898566  00000+0 -32657-1 0  9990",
        "tle_line2": "2 66540  43.0003  74.8130 0001677 266.8857 102.6331 15.53810760  4421"
      },
      "geometry": {
        "type": "Point",
        "coordinates": [
          -6.254085290131701,
          -42.511534355362144
        ]
      }
    },
    {
      "type": "Feature",
      "properties": {
        "norad_id": 66541,
        "name": "STARLINK-35796",
        "group": "last-30-days",
        "lat": -42.24831617345736,
        "lon": -3.692377836820083,
        "alt_km": 410.80258788639185,
        "timestamp": "2025-12-09T09:46:46.422057+00:00",
        "meta_object_name": "STARLINK-35796",
        "meta_object_id": "2025-265AB",
        "meta_epoch": "2025-12-09T04:00:01.998720",
        "meta_mean_motion": 15.53813481,
        "meta_eccentricity": 0.0001668,
        "meta_inclination": 43.0002,
        "meta_ra_of_asc_node": 74.8078,
        "meta_arg_of_pericenter": 267.2182,
        "meta_mean_anomaly": 104.2157,
        "meta_ephemeris_type": 0,
        "meta_classification_type": "U",
        "meta_norad_cat_id": 66541,
        "meta_element_set_no": 999,
        "meta_rev_at_epoch": 442,
        "meta_bstar": -0.032708,
        "meta_mean_motion_dot": -0.01901312,
        "meta_mean_motion_ddot": 0,
        "tle_line1": "1 66541U 25265AB  25343.16668980 -.01901312  00000+0 -32708-1 0  9992",
        "tle_line2": "2 66541  43.0002  74.8078 0001668 267.2182 104.2157 15.53813481  4425"
      },
      "geometry": {
        "type": "Point",
        "coordinates": [
          -3.692377836820083,
          -42.24831617345736
        ]
      }
    },
    {
      "type": "Feature",
      "properties": {
        "norad_id": 66542,
        "name": "STARLINK-35833",
        "group": "last-30-days",
        "lat": -41.9284089474212,
        "lon": -1.1532029862430022,
        "alt_km": 410.78111404757783,
        "timestamp": "2025-12-09T09:46:46.422067+00:00",
        "meta_object_name": "STARLINK-35833",
        "meta_object_id": "2025-265AC",
        "meta_epoch": "2025-12-09T04:00:01.998720",
        "meta_mean_motion": 15.53813396,
        "meta_eccentricity": 0.000168,
        "meta_inclination": 43.0002,
        "meta_ra_of_asc_node": 74.8032,
        "meta_arg_of_pericenter": 269.665,
        "meta_mean_anomaly": 103.6872,
        "meta_ephemeris_type": 0,
        "meta_classification_type": "U",
        "meta_norad_cat_id": 66542,
        "meta_element_set_no": 999,
        "meta_rev_at_epoch": 442,
        "meta_bstar": -0.032735,
        "meta_mean_motion_dot": -0.01902716,
        "meta_mean_motion_ddot": 0,
        "tle_line1": "1 66542U 25265AC  25343.16668980 -.01902716  00000+0 -32735-1 0  9992",
        "tle_line2": "2 66542  43.0002  74.8032 0001680 269.6650 103.6872 15.53813396  4428"
      },
      "geometry": {
        "type": "Point",
        "coordinates": [
          -1.1532029862430022,
          -41.9284089474212
        ]
      }
    },
    {
      "type": "Feature",
      "properties": {
        "norad_id": 66543,
        "name": "STARLINK-35315",
        "group": "last-30-days",
        "lat": -41.55290318836501,
        "lon": 1.3593563776961688,
        "alt_km": 410.75493192250724,
        "timestamp": "2025-12-09T09:46:46.422100+00:00",
        "meta_object_name": "STARLINK-35315",
        "meta_object_id": "2025-265AD",
        "meta_epoch": "2025-12-09T04:00:01.998720",
        "meta_mean_motion": 15.53817002,
        "meta_eccentricity": 0.0001729,
        "meta_inclination": 43.0005,
        "meta_ra_of_asc_node": 74.7974,
        "meta_arg_of_pericenter": 267.4014,
        "meta_mean_anomaly": 107.8668,
        "meta_ephemeris_type": 0,
        "meta_classification_type": "U",
        "meta_norad_cat_id": 66543,
        "meta_element_set_no": 999,
        "meta_rev_at_epoch": 431,
        "meta_bstar": -0.032855,
        "meta_mean_motion_dot": -0.01909114,
        "meta_mean_motion_ddot": 0,
        "tle_line1": "1 66543U 25265AD  25343.16668980 -.01909114  00000+0 -32855-1 0  9995",
        "tle_line2": "2 66543  43.0005  74.7974 0001729 267.4014 107.8668 15.53817002  4315"
      },
      "geometry": {
        "type": "Point",
        "coordinates": [
          1.3593563776961688,
          -41.55290318836501
        ]
      }
    },
    {
      "type": "Feature",
      "properties": {
        "norad_id": 66544,
        "name": "STARLINK-35728",
        "group": "last-30-days",
        "lat": -41.12249608054916,
        "lon": 3.84333052500515,
        "alt_km": 410.8655323081366,
        "timestamp": "2025-12-09T09:46:46.422113+00:00",
        "meta_object_name": "STARLINK-35728",
        "meta_object_id": "2025-265AE",
        "meta_epoch": "2025-12-09T04:00:01.998720",
        "meta_mean_motion": 15.53816737,
        "meta_eccentricity": 0.0001587,
        "meta_inclination": 43.0004,
        "meta_ra_of_asc_node": 74.793,
        "meta_arg_of_pericenter": 264.5479,
        "meta_mean_anomaly": 112.6395,
        "meta_ephemeris_type": 0,
        "meta_classification_type": "U",
        "meta_norad_cat_id": 66544,
        "meta_element_set_no": 999,
        "meta_rev_at_epoch": 442,
        "meta_bstar": -0.032864,
        "meta_mean_motion_dot": -0.01909466,
        "meta_mean_motion_ddot": 0,
        "tle_line1": "1 66544U 25265AE  25343.16668980 -.01909466  00000+0 -32864-1 0  9996",
        "tle_line2": "2 66544  43.0004  74.7930 0001587 264.5479 112.6395 15.53816737  4429"
      },
      "geometry": {
        "type": "Point",
        "coordinates": [
          3.84333052500515,
          -41.12249608054916
        ]
      }
    }
  ]
}